STARLINK-32592          
1 62035U 24216D   26068.90500208  .00027338  00000+0  99861-3 0  9995
2 62035  43.0007 262.4547 0001775 283.7388  76.3266 15.27601841 73837
TEVEL2-2                
1 63219U 25052K   26068.64848259  .00020339  00000+0  69428-3 0  9991
2 63219  97.3987 324.7700 0004693 105.7930 254.3828 15.30343745 54855
